ONEWEB-0205             
1 48226U 21031S   25165.56496508 -.00000098  00000+0 -29988-3 0  9998
2 48226  87.9036   2.8339 0001967  83.4610 276.6743 13.14501485199979
ONEWEB-0206             
1 48227U 21031T   25165.61412948  .00000258  00000+0  66213-3 0  9999
2 48227  87.9030   2.8045 0001827  84.8242 275.3096 13.14504463199931
ONEWEB-0182             
1 48228U 21031U   25165.53325208  .00000248  00000+0  63516-3 0  9995
2 48228  87.9033   2.8631 0001698  86.6826 273.4498 13.14504828200135
ONEWEB-0186             
1 48229U 21031V   25165.54435434  .00000227  00000+0  57720-3 0  9997
2 48229  87.9037   2.8224 0001925  86.8601 273.2749 13.14501515200085
ONEWEB-0181             
1 48230U 21031W   25165.59827100  .00000073  00000+0  16223-3 0  9991
2 48230  87.9034   2.8831 0001989  88.6792 271.4565 13.14501562199949
ONEWEB-0188             
1 48231U 21031X   25165.78856226 -.00000002  00000+0 -39186-4 0  9992
2 48231  87.9037   2.8373 0001833  86.3240 273.8099 13.14501461199873
ONEWEB-0220             
1 48232U 21031Y   25165.59988333  .00000060  00000+0  12715-3 0  9997
2 48232  87.9025   2.8174 0001999  80.9614 279.1742 13.14505066200117
ONEWEB-0165             
1 48233U 21031Z   25165.78063402  .00000149  00000+0  36760-3 0  9994
2 48233  87.9037   2.8226 0001991  85.9845 274.1512 13.14501457200099
